QIANFAN-1               
1 60379U 24140A   25352.91405724  .00000060  00000+0  73643-4 0  9997
2 60379  88.9765 298.6411 0016532 191.5199 168.5577 13.50978978 68182
QIANFAN-2               
1 60380U 24140B   25352.86896935  .00000075  00000+0  97116-4 0  9998
2 60380  88.9751 298.4843 0012761 160.9045 199.2587 13.50982755 68232
QIANFAN-3               
1 60381U 24140C   25352.87713176  .00000076  00000+0  99272-4 0  9991
2 60381  88.9744 298.6156 0013446 174.2845 185.8462 13.50983258 68143
QIANFAN-4               
1 60382U 24140D   25352.92639351  .00000073  00000+0  94765-4 0  9999
2 60382  88.9769 298.5097 0012900 163.4933 196.6641 13.50978980 68275
QIANFAN-5               
1 60383U 24140E   25352.90182999  .00000062  00000+0  76804-4 0  9991
2 60383  88.9744 298.6384 0014344 186.5580 173.5385 13.50980945 68135
QIANFAN-6               
1 60384U 24140F   25352.92242115  .00000073  00000+0  93980-4 0  9997
2 60384  88.9771 298.3842 0012832 169.5519 190.5901 13.50981303 68339
QIANFAN-7               
1 60385U 24140G   25352.91258159  .00000557  00000+0  21998-3 0  9998
2 60385  88.9786 292.9961 0016452  27.4574 332.7486 14.27657718 71273
QIANFAN-8               
1 60386U 24140H   25352.93069268  .00000070  00000+0  90000-4 0  9993
2 60386  88.9772 298.6209 0016181 173.5588 186.5775 13.50979224 68180
